QIANFAN-35              
1 61568U 24185S   26073.90981167  .00001004  00000+0  39816-3 0  9999
2 61568  88.9753  66.0365 0006301   5.3392 354.7869 14.28139337 83336
QIANFAN-36              
1 61569U 24185T   26073.93280107  .00000110  00000+0  14067-3 0  9997
2 61569  88.9723  71.4199 0007678 123.7775 236.4111 13.55615686 80414
QIANFAN-37              
1 62238U 24232B   26073.90569883  .00000107  00000+0  14754-3 0  9991
2 62238  89.0067  32.0247 0002025  97.4924 262.6457 13.51006926111610
QIANFAN-38              
1 62239U 24232C   26073.93033624  .00000078  00000+0  10266-3 0  9995
2 62239  89.0075  31.9444 0012710 293.8896  66.0923 13.51005447111676
QIANFAN-39              
1 62240U 24232D   26073.87664353  .00000507  00000+0  20821-3 0  9994
2 62240  89.0071  26.7745 0017676 130.4783 229.7954 14.25445956114510
QIANFAN-40              
1 62241U 24232E   26073.88919265  .00000094  00000+0  12777-3 0  9993
2 62241  89.0102  31.5589 0011939 303.5723  56.4288 13.51004816112033
QIANFAN-41              
1 62242U 24232F   26073.89745506  .00000096  00000+0  13045-3 0  9991
2 62242  89.0072  31.8976 0012051 289.6642  70.3208 13.51006385111694
QIANFAN-42              
1 62243U 24232G   26073.93327156  .00000469  00000+0  19572-3 0  9999
2 62243  89.0069  26.8289 0016331 135.5779 224.6727 14.24539325114494
QIANFAN-43              
1 62244U 24232H   26073.89329648  .00000094  00000+0  12768-3 0  9997
2 62244  89.0076  31.9674 0013667 295.1204  64.8529 13.51006377 80304
QIANFAN-44              
1 62245U 24232J   26073.88097779  .00000101  00000+0  13828-3 0  9991
2 62245  89.0075  31.7780 0011835 292.4480  67.5417 13.51004379111773
QIANFAN-45              
1 62246U 24232K   26073.92213277  .00000085  00000+0  11354-3 0  9993
2 62246  89.0079  31.9235 0012484 291.6205  68.3615 13.51008151111706
QIANFAN-46              
1 62247U 24232L   26073.94679149  .00000102  00000+0  14013-3 0  9995
2 62247  89.0075  31.9863 0012654 297.8106  62.1762 13.51004964111665
QIANFAN-47              
1 62248U 24232M   26073.95090395  .00000093  00000+0  12500-3 0  9995
2 62248  89.0071  31.9152 0013062 296.6628  63.3185 13.51004819111697
QIANFAN-48              
1 62249U 24232N   26073.91387755  .00000095  00000+0  12893-3 0  9998
2 62249  89.0075  31.9243 0015372 298.9713  60.9897 13.51004908111691
QIANFAN-49              
1 62250U 24232P   26073.90154646  .00000094  00000+0  12760-3 0  9992
2 62250  89.0074  31.9373 0012340 293.8981  66.0877 13.51004095 80281
QIANFAN-50              
1 62251U 24232Q   26073.92621371  .00000085  00000+0  11328-3 0  9998
2 62251  89.0079  31.9481 0014022 294.7921  65.1771 13.51005096 80319
QIANFAN-51              
1 62252U 24232R   26073.90978324  .00000099  00000+0  13541-3 0  9994
2 62252  89.0073  31.9379 0011601 300.0159  59.9840 13.51005799 80301
