[{"OBJECT_NAME":"QIANFAN-35","OBJECT_ID":"2024-185S","EPOCH":"2026-03-14T21:50:07.728288","MEAN_MOTION":14.28139337,"ECCENTRICITY":0.00063016,"INCLINATION":88.9753,"RA_OF_ASC_NODE":66.0365,"ARG_OF_PERICENTER":5.3392,"MEAN_ANOMALY":354.7869,"EPHEMERIS_TYPE":0,"CLASSIFICATION_TYPE":"U","NORAD_CAT_ID":61568,"ELEMENT_SET_NO":999,"REV_AT_EPOCH":8333,"BSTAR":0.00039815532,"MEAN_MOTION_DOT":1.004e-5,"MEAN_MOTION_DDOT":0},{"OBJECT_NAME":"QIANFAN-36","OBJECT_ID":"2024-185T","EPOCH":"2026-03-14T22:23:14.012448","MEAN_MOTION":13.55615686,"ECCENTRICITY":0.00076782,"INCLINATION":88.9723,"RA_OF_ASC_NODE":71.4199,"ARG_OF_PERICENTER":123.7775,"MEAN_ANOMALY":236.4111,"EPHEMERIS_TYPE":0,"CLASSIFICATION_TYPE":"U","NORAD_CAT_ID":61569,"ELEMENT_SET_NO":999,"REV_AT_EPOCH":8041,"BSTAR":0.00014066702,"MEAN_MOTION_DOT":1.1e-6,"MEAN_MOTION_DDOT":0},{"OBJECT_NAME":"QIANFAN-37","OBJECT_ID":"2024-232B","EPOCH":"2026-03-14T21:44:12.378912","MEAN_MOTION":13.51006926,"ECCENTRICITY":0.00020259,"INCLINATION":89.0067,"RA_OF_ASC_NODE":32.0247,"ARG_OF_PERICENTER":97.4924,"MEAN_ANOMALY":262.6457,"EPHEMERIS_TYPE":0,"CLASSIFICATION_TYPE":"U","NORAD_CAT_ID":62238,"ELEMENT_SET_NO":999,"REV_AT_EPOCH":11161,"BSTAR":0.00014753512,"MEAN_MOTION_DOT":1.07e-6,"MEAN_MOTION_DDOT":0},{"OBJECT_NAME":"QIANFAN-38","OBJECT_ID":"2024-232C","EPOCH":"2026-03-14T22:19:41.051136","MEAN_MOTION":13.51005447,"ECCENTRICITY":0.00127109,"INCLINATION":89.0075,"RA_OF_ASC_NODE":31.9444,"ARG_OF_PERICENTER":293.8896,"MEAN_ANOMALY":66.0923,"EPHEMERIS_TYPE":0,"CLASSIFICATION_TYPE":"U","NORAD_CAT_ID":62239,"ELEMENT_SET_NO":999,"REV_AT_EPOCH":11167,"BSTAR":0.00010265756,"MEAN_MOTION_DOT":7.8e-7,"MEAN_MOTION_DDOT":0},{"OBJECT_NAME":"QIANFAN-39","OBJECT_ID":"2024-232D","EPOCH":"2026-03-14T21:02:22.000992","MEAN_MOTION":14.25445956,"ECCENTRICITY":0.00176761,"INCLINATION":89.0071,"RA_OF_ASC_NODE":26.7745,"ARG_OF_PERICENTER":130.4783,"MEAN_ANOMALY":229.7954,"EPHEMERIS_TYPE":0,"CLASSIFICATION_TYPE":"U","NORAD_CAT_ID":62240,"ELEMENT_SET_NO":999,"REV_AT_EPOCH":11451,"BSTAR":0.00020820925,"MEAN_MOTION_DOT":5.07e-6,"MEAN_MOTION_DDOT":0},{"OBJECT_NAME":"QIANFAN-40","OBJECT_ID":"2024-232E","EPOCH":"2026-03-14T21:20:26.244960","MEAN_MOTION":13.51004816,"ECCENTRICITY":0.00119393,"INCLINATION":89.0102,"RA_OF_ASC_NODE":31.5589,"ARG_OF_PERICENTER":303.5723,"MEAN_ANOMALY":56.4288,"EPHEMERIS_TYPE":0,"CLASSIFICATION_TYPE":"U","NORAD_CAT_ID":62241,"ELEMENT_SET_NO":999,"REV_AT_EPOCH":11203,"BSTAR":0.00012777223,"MEAN_MOTION_DOT":9.4e-7,"MEAN_MOTION_DDOT":0},{"OBJECT_NAME":"QIANFAN-41","OBJECT_ID":"2024-232F","EPOCH":"2026-03-14T21:32:20.117184","MEAN_MOTION":13.51006385,"ECCENTRICITY":0.00120516,"INCLINATION":89.0072,"RA_OF_ASC_NODE":31.8976,"ARG_OF_PERICENTER":289.6642,"MEAN_ANOMALY":70.3208,"EPHEMERIS_TYPE":0,"CLASSIFICATION_TYPE":"U","NORAD_CAT_ID":62242,"ELEMENT_SET_NO":999,"REV_AT_EPOCH":11169,"BSTAR":0.00013044924,"MEAN_MOTION_DOT":9.6e-7,"MEAN_MOTION_DDOT":0},{"OBJECT_NAME":"QIANFAN-42","OBJECT_ID":"2024-232G","EPOCH":"2026-03-14T22:23:54.662784","MEAN_MOTION":14.24539325,"ECCENTRICITY":0.00163319,"INCLINATION":89.0069,"RA_OF_ASC_NODE":26.8289,"ARG_OF_PERICENTER":135.5779,"MEAN_ANOMALY":224.6727,"EPHEMERIS_TYPE":0,"CLASSIFICATION_TYPE":"U","NORAD_CAT_ID":62243,"ELEMENT_SET_NO":999,"REV_AT_EPOCH":11449,"BSTAR":0.00019571844,"MEAN_MOTION_DOT":4.69e-6,"MEAN_MOTION_DDOT":0},{"OBJECT_NAME":"QIANFAN-43","OBJECT_ID":"2024-232H","EPOCH":"2026-03-14T21:26:20.815872","MEAN_MOTION":13.51006377,"ECCENTRICITY":0.00136673,"INCLINATION":89.0076,"RA_OF_ASC_NODE":31.9674,"ARG_OF_PERICENTER":295.1204,"MEAN_ANOMALY":64.8529,"EPHEMERIS_TYPE":0,"CLASSIFICATION_TYPE":"U","NORAD_CAT_ID":62244,"ELEMENT_SET_NO":999,"REV_AT_EPOCH":8030,"BSTAR":0.00012767648,"MEAN_MOTION_DOT":9.4e-7,"MEAN_MOTION_DDOT":0},{"OBJECT_NAME":"QIANFAN-44","OBJECT_ID":"2024-232J","EPOCH":"2026-03-14T21:08:36.481056","MEAN_MOTION":13.51004379,"ECCENTRICITY":0.00118359,"INCLINATION":89.0075,"RA_OF_ASC_NODE":31.778,"ARG_OF_PERICENTER":292.448,"MEAN_ANOMALY":67.5417,"EPHEMERIS_TYPE":0,"CLASSIFICATION_TYPE":"U","NORAD_CAT_ID":62245,"ELEMENT_SET_NO":999,"REV_AT_EPOCH":11177,"BSTAR":0.0001382812,"MEAN_MOTION_DOT":1.01e-6,"MEAN_MOTION_DDOT":0},{"OBJECT_NAME":"QIANFAN-45","OBJECT_ID":"2024-232K","EPOCH":"2026-03-14T22:07:52.271328","MEAN_MOTION":13.51008151,"ECCENTRICITY":0.00124847,"INCLINATION":89.0079,"RA_OF_ASC_NODE":31.9235,"ARG_OF_PERICENTER":291.6205,"MEAN_ANOMALY":68.3615,"EPHEMERIS_TYPE":0,"CLASSIFICATION_TYPE":"U","NORAD_CAT_ID":62246,"ELEMENT_SET_NO":999,"REV_AT_EPOCH":11170,"BSTAR":0.00011354475,"MEAN_MOTION_DOT":8.5e-7,"MEAN_MOTION_DDOT":0},{"OBJECT_NAME":"QIANFAN-46","OBJECT_ID":"2024-232L","EPOCH":"2026-03-14T22:43:22.784736","MEAN_MOTION":13.51004964,"ECCENTRICITY":0.00126541,"INCLINATION":89.0075,"RA_OF_ASC_NODE":31.9863,"ARG_OF_PERICENTER":297.8106,"MEAN_ANOMALY":62.1762,"EPHEMERIS_TYPE":0,"CLASSIFICATION_TYPE":"U","NORAD_CAT_ID":62247,"ELEMENT_SET_NO":999,"REV_AT_EPOCH":11166,"BSTAR":0.00014013401,"MEAN_MOTION_DOT":1.02e-6,"MEAN_MOTION_DDOT":0},{"OBJECT_NAME":"QIANFAN-47","OBJECT_ID":"2024-232M","EPOCH":"2026-03-14T22:49:18.101280","MEAN_MOTION":13.51004819,"ECCENTRICITY":0.00130625,"INCLINATION":89.0071,"RA_OF_ASC_NODE":31.9152,"ARG_OF_PERICENTER":296.6628,"MEAN_ANOMALY":63.3185,"EPHEMERIS_TYPE":0,"CLASSIFICATION_TYPE":"U","NORAD_CAT_ID":62248,"ELEMENT_SET_NO":999,"REV_AT_EPOCH":11169,"BSTAR":0.00012500217,"MEAN_MOTION_DOT":9.3e-7,"MEAN_MOTION_DDOT":0},{"OBJECT_NAME":"QIANFAN-48","OBJECT_ID":"2024-232N","EPOCH":"2026-03-14T21:55:59.020320","MEAN_MOTION":13.51004908,"ECCENTRICITY":0.00153722,"INCLINATION":89.0075,"RA_OF_ASC_NODE":31.9243,"ARG_OF_PERICENTER":298.9713,"MEAN_ANOMALY":60.9897,"EPHEMERIS_TYPE":0,"CLASSIFICATION_TYPE":"U","NORAD_CAT_ID":62249,"ELEMENT_SET_NO":999,"REV_AT_EPOCH":11169,"BSTAR":0.00012892634,"MEAN_MOTION_DOT":9.5e-7,"MEAN_MOTION_DDOT":0},{"OBJECT_NAME":"QIANFAN-49","OBJECT_ID":"2024-232P","EPOCH":"2026-03-14T21:38:13.614144","MEAN_MOTION":13.51004095,"ECCENTRICITY":0.00123403,"INCLINATION":89.0074,"RA_OF_ASC_NODE":31.9373,"ARG_OF_PERICENTER":293.8981,"MEAN_ANOMALY":66.0877,"EPHEMERIS_TYPE":0,"CLASSIFICATION_TYPE":"U","NORAD_CAT_ID":62250,"ELEMENT_SET_NO":999,"REV_AT_EPOCH":8028,"BSTAR":0.00012760102,"MEAN_MOTION_DOT":9.4e-7,"MEAN_MOTION_DDOT":0},{"OBJECT_NAME":"QIANFAN-50","OBJECT_ID":"2024-232Q","EPOCH":"2026-03-14T22:13:44.864544","MEAN_MOTION":13.51005096,"ECCENTRICITY":0.00140222,"INCLINATION":89.0079,"RA_OF_ASC_NODE":31.9481,"ARG_OF_PERICENTER":294.7921,"MEAN_ANOMALY":65.1771,"EPHEMERIS_TYPE":0,"CLASSIFICATION_TYPE":"U","NORAD_CAT_ID":62251,"ELEMENT_SET_NO":999,"REV_AT_EPOCH":8031,"BSTAR":0.00011327593,"MEAN_MOTION_DOT":8.5e-7,"MEAN_MOTION_DDOT":0},{"OBJECT_NAME":"QIANFAN-51","OBJECT_ID":"2024-232R","EPOCH":"2026-03-14T21:50:05.271936","MEAN_MOTION":13.51005799,"ECCENTRICITY":0.00116011,"INCLINATION":89.0073,"RA_OF_ASC_NODE":31.9379,"ARG_OF_PERICENTER":300.0159,"MEAN_ANOMALY":59.984,"EPHEMERIS_TYPE":0,"CLASSIFICATION_TYPE":"U","NORAD_CAT_ID":62252,"ELEMENT_SET_NO":999,"REV_AT_EPOCH":8030,"BSTAR":0.00013541356,"MEAN_MOTION_DOT":9.9e-7,"MEAN_MOTION_DDOT":0}]
